[
    [
        "BEIDOU-2 IGSO-1 (C06)",
        "1 36828U 10036A   24006.33489172 -.00000036  00000+0  00000+0 0  9994",
        "2 36828  54.2439 171.0426 0038481 191.3575 332.2808  1.00274405 49251"
    ],
    [
        "BEIDOU-2 G4 (C04)",
        "1 37210U 10057A   24006.53706687 -.00000084  00000+0  00000+0 0  9991",
        "2 37210   1.4587  65.6321 0007525 191.3492 202.0198  1.00272857 48344"
    ],
    [
        "BEIDOU-2 IGSO-2 (C07)",
        "1 37256U 10068A   24006.68159036 -.00000186  00000+0  00000+0 0  9992",
        "2 37256  49.1797 282.8004 0031840 215.4684 316.8266  1.00302358 47838"
    ],
    [
        "BEIDOU-2 IGSO-3 (C08)",
        "1 37384U 11013A   24006.54883167 -.00000169  00000+0  00000+0 0  9990",
        "2 37384  61.1168  48.6859 0029458 183.5220 176.0005  1.00299861 46701"
    ],
    [
        "BEIDOU-2 IGSO-4 (C09)",
        "1 37763U 11038A   24006.44160441  .00000085  00000+0  00000+0 0  9996",
        "2 37763  54.5523 173.6210 0116441 226.4317 317.4739  1.00292911 45686"
    ],
    [
        "BEIDOU-2 IGSO-5 (C10)",
        "1 37948U 11073A   24006.23003302 -.00000143  00000+0  00000+0 0  9995",
        "2 37948  49.3100 282.4838 0094228 221.2762 138.2880  1.00288382 44181"
    ],
    [
        "BEIDOU-2 G5 (C05)",
        "1 38091U 12008A   24006.00541694  .00000084  00000+0  00000+0 0  9993",
        "2 38091   2.0062  70.1852 0008975 215.3024 240.2144  1.00271994 43414"
    ],
    [
        "BEIDOU-2 M3 (C11)",
        "1 38250U 12018A   24006.23515425 -.00000074  00000+0  00000+0 0  9999",
        "2 38250  56.4427 334.7606 0024779 265.5174  94.1985  1.86231268 79319"
    ],
    [
        "BEIDOU-2 M4 (C12)",
        "1 38251U 12018B   24006.70301772 -.00000073  00000+0  00000+0 0  9999",
        "2 38251  56.3514 334.0289 0015775 270.0424  89.7750  1.86232006 79671"
    ],
    [
        "BEIDOU-2 M6 (C14)",
        "1 38775U 12050B   24006.41268321 -.00000036  00000+0  00000+0 0  9995",
        "2 38775  55.7848  92.6100 0011870 328.8551  31.0974  1.86231050 77033"
    ],
    [
        "BEIDOU-2 G6 (C02)",
        "1 38953U 12059A   24006.79831191 -.00000148  00000+0  00000+0 0  9998",
        "2 38953   2.1444  81.5121 0009331 289.2316 106.4992  1.00269798 41109"
    ],
    [
        "BEIDOU-3S IGSO-1S (C31)",
        "1 40549U 15019A   24006.23164297 -.00000182  00000+0  00000+0 0  9994",
        "2 40549  50.8770 306.1158 0035377 195.2063 142.4428  1.00285423 32113"
    ],
    [
        "BEIDOU-3S M2S (C58)",
        "1 40748U 15037A   24005.29379459 -.00000077  00000+0  00000+0 0  9991",
        "2 40748  55.5892 332.5991 0012014 262.1335  97.7301  1.86233139 57477"
    ],
    [
        "BEIDOU-3S M1S (C57)",
        "1 40749U 15037B   24006.10098478 -.00000076  00000+0  00000+0 0  9991",
        "2 40749  55.5917 332.5584 0006901 319.9014  40.0467  1.86232979 57494"
    ],
    [
        "BEIDOU-3S IGSO-2S (C56)",
        "1 40938U 15053A   24006.22607817 -.00000104  00000+0  00000+0 0  9997",
        "2 40938  50.6135 269.3095 0045766 192.6325 178.3016  1.00255242 30400"
    ],
    [
        "BEIDOU-2 IGSO-6 (C13)",
        "1 41434U 16021A   24006.58507817 -.00000139  00000+0  00000+0 0  9991",
        "2 41434  58.9302  46.9982 0050008 224.7246 138.5127  1.00259115 28521"
    ],
    [
        "BEIDOU-2 G7 (C03)",
        "1 41586U 16037A   24006.74118074 -.00000326  00000+0  00000+0 0  9995",
        "2 41586   1.5182  66.9260 0009909 315.3771 100.7812  1.00265368 27836"
    ],
    [
        "BEIDOU-3 M1 (C19)",
        "1 43001U 17069A   24006.17888665 -.00000036  00000+0  00000+0 0  9990",
        "2 43001  55.9355  92.6937 0009887 290.1085  69.8080  1.86231386 41975"
    ],
    [
        "BEIDOU-3 M2 (C20)",
        "1 43002U 17069B   24006.65278001 -.00000035  00000+0  00000+0 0  9990",
        "2 43002  55.9353  92.7131 0007157 312.4373  47.5249  1.86231057 41972"
    ],
    [
        "BEIDOU-3 M7 (C27)",
        "1 43107U 18003A   24006.40294503 -.00000076  00000+0  00000+0 0  9998",
        "2 43107  55.0456 333.2237 0003396  45.2191 314.8076  1.86232379 40732"
    ],
    [
        "BEIDOU-3 M8 (C28)",
        "1 43108U 18003B   24006.34205909 -.00000076  00000+0  00000+0 0  9994",
        "2 43108  55.0386 333.2121 0004683 272.1329  87.8126  1.86230876 40734"
    ],
    [
        "BEIDOU-3 M4 (C22)",
        "1 43207U 18018A   24005.70997248 -.00000036  00000+0  00000+0 0  9999",
        "2 43207  55.8940  92.8040 0004044 339.9831  20.0238  1.86231329 40105"
    ],
    [
        "BEIDOU-3 M3 (C21)",
        "1 43208U 18018B   24006.31354183 -.00000036  00000+0  00000+0 0  9993",
        "2 43208  55.8939  92.7883 0007339 299.4847  60.4647  1.86231472 40117"
    ],
    [
        "BEIDOU-3 M9 (C29)",
        "1 43245U 18029A   24006.53577203 -.00000076  00000+0  00000+0 0  9994",
        "2 43245  54.9352 330.9425 0001887 294.6588  65.3200  1.86232612 39278"
    ],
    [
        "BEIDOU-3 M10 (C30)",
        "1 43246U 18029B   24006.46564002 -.00000076  00000+0  00000+0 0  9990",
        "2 43246  54.9321 330.9728 0004693 347.8503  12.1369  1.86232730 39263"
    ],
    [
        "BEIDOU-2 IGSO-7 (C16)",
        "1 43539U 18057A   24006.37363965 -.00000032  00000+0  00000+0 0  9993",
        "2 43539  55.1277 170.7698 0064659 228.9844 309.4113  1.00245726 20187"
    ],
    [
        "BEIDOU-3 M5 (C23)",
        "1 43581U 18062A   24006.14955177  .00000124  00000+0  00000+0 0  9994",
        "2 43581  54.1544 212.6900 0001920 348.3169  11.7445  1.86228819 37009"
    ],
    [
        "BEIDOU-3 M6 (C24)",
        "1 43582U 18062B   24006.01614166  .00000123  00000+0  00000+0 0  9990",
        "2 43582  54.1540 212.6842 0007277  37.6746 322.4418  1.86229832 37009"
    ],
    [
        "BEIDOU-3 M12 (C26)",
        "1 43602U 18067A   24005.95129761  .00000124  00000+0  00000+0 0  9993",
        "2 43602  54.2431 211.3525 0008266  30.1363 329.9748  1.86231645 36482"
    ],
    [
        "BEIDOU-3 M11 (C25)",
        "1 43603U 18067B   24006.08514386  .00000126  00000+0  00000+0 0  9992",
        "2 43603  54.2403 211.3135 0004964  27.2625 332.8274  1.86231579 36515"
    ],
    [
        "BEIDOU-3 M13 (C32)",
        "1 43622U 18072A   24005.50772269 -.00000036  00000+0  00000+0 0  9992",
        "2 43622  55.8640  92.3463 0006685 283.2404  76.7088  1.86231104 36014"
    ],
    [
        "BEIDOU-3 M14 (C33)",
        "1 43623U 18072B   24005.91012831 -.00000036  00000+0  00000+0 0  9990",
        "2 43623  55.8662  92.3257 0003876 305.4233  54.5639  1.86231120 36010"
    ],
    [
        "BEIDOU-3 M16 (C35)",
        "1 43647U 18078A   24006.07361196 -.00000077  00000+0  00000+0 0  9996",
        "2 43647  54.8314 331.0702 0007627   2.3252 357.6774  1.86232265 35522"
    ],
    [
        "BEIDOU-3 M15 (C34)",
        "1 43648U 18078B   24006.20271469 -.00000077  00000+0  00000+0 0  9995",
        "2 43648  54.8271 331.0691 0004517   2.9967 357.0049  1.86232139 35547"
    ],
    [
        "BEIDOU-3 G1 (C59)",
        "1 43683U 18085A   24006.31852625 -.00000252  00000+0  00000+0 0  9998",
        "2 43683   1.7993 116.9451 0001277 351.5900 251.5455  1.00267694 19105"
    ],
    [
        "BEIDOU-3 M17 (C36)",
        "1 43706U 18093A   24005.27705166  .00000116  00000+0  00000+0 0  9992",
        "2 43706  54.2370 212.6460 0006446 296.1380  63.8589  1.86228442 34893"
    ],
    [
        "BEIDOU-3 M18 (C37)",
        "1 43707U 18093B   24003.53282061  .00000093  00000+0  00000+0 0  9998",
        "2 43707  54.2381 212.6972 0006329 335.7459  24.2831  1.86230008 34859"
    ],
    [
        "BEIDOU-3 IGSO-1 (C38)",
        "1 44204U 19023A   23359.85561811 -.00000224  00000+0  00000+0 0  9993",
        "2 44204  57.3835  47.0551 0023834 204.1671 266.3544  1.00248909 17270"
    ],
    [
        "BEIDOU-2 G8 (C01)",
        "1 44231U 19027A   24006.52257728 -.00000220  00000+0  00000+0 0  9996",
        "2 44231   1.5465  72.4130 0004189 176.1962 189.6836  1.00272006 17139"
    ],
    [
        "BEIDOU-3 IGSO-2 (C39)",
        "1 44337U 19035A   24005.25448771 -.00000048  00000+0  00000+0 0  9999",
        "2 44337  55.1655 166.7081 0031078 199.9763 307.1391  1.00292337 16707"
    ],
    [
        "BEIDOU-3 M24 (C46)",
        "1 44542U 19061A   24005.21440607  .00000116  00000+0  00000+0 0  9997",
        "2 44542  54.4647 212.9017 0008781  11.4190 348.6645  1.86231491 29140"
    ],
    [
        "BEIDOU-3 M23 (C45)",
        "1 44543U 19061B   24006.19856852  .00000125  00000+0  00000+0 0  9999",
        "2 44543  54.4628 212.8380 0005599  10.4038 201.5568  1.86231903 29167"
    ],
    [
        "BEIDOU-3 IGSO-3 (C40)",
        "1 44709U 19073A   24005.19407604 -.00000197  00000+0  00000+0 0  9992",
        "2 44709  56.3287 290.4603 0034892 182.9570 177.0485  1.00299583 15497"
    ],
    [
        "BEIDOU-3 M22 (C44)",
        "1 44793U 19078A   24006.13376260 -.00000077  00000+0  00000+0 0  9995",
        "2 44793  54.6796 331.0201 0006460   7.1085 352.8997  1.86232053 28017"
    ],
    [
        "BEIDOU-3 M21 (C43)",
        "1 44794U 19078B   24006.26400105 -.00000077  00000+0  00000+0 0  9996",
        "2 44794  54.6531 330.9952 0004604 355.6794   4.3155  1.86232638 28027"
    ],
    [
        "BEIDOU-3 M19 (C41)",
        "1 44864U 19090A   24006.48106172 -.00000036  00000+0  00000+0 0  9994",
        "2 44864  55.7990  92.4945 0018005 274.0035  64.9447  1.86231648 27609"
    ],
    [
        "BEIDOU-3 M20 (C42)",
        "1 44865U 19090B   24006.51651742 -.00000036  00000+0  00000+0 0  9997",
        "2 44865  55.8009  92.5263 0015518 286.3330 166.1546  1.86231600 27597"
    ],
    [
        "BEIDOU-3 G2 (C60)",
        "1 45344U 20017A   24005.63382819 -.00000115  00000+0  00000+0 0  9997",
        "2 45344   2.1394  22.5015 0003134 252.1695 138.2393  1.00270883 14303"
    ],
    [
        "BEIDOU-3 G3 (C61)",
        "1 45807U 20040A   24006.55304119 -.00000326  00000+0  00000+0 0  9990",
        "2 45807   0.5868  12.7419 0008992 300.8617 101.6202  1.00276810 13124"
    ],
    [
        "BEIDOU-3 G4",
        "1 56564U 23066A   24006.53706662 -.00000079  00000+0  00000+0 0  9995",
        "2 56564   2.5315 288.3341 0003274 230.7384 299.9793  1.00272278  2443"
    ],
    [
        "BEIDOU-3 M25",
        "1 58654U 23207A   24006.23031245 -.00000037  00000+0  00000+0 0  9993",
        "2 58654  54.9786  92.6231 0117692 178.7653 181.2854  1.82957507   211"
    ],
    [
        "BEIDOU-3 M26",
        "1 58655U 23207B   24005.84694770 -.00000037  00000+0  00000+0 0  9998",
        "2 58655  54.6471  92.7627 0316732  68.9835  87.0455  1.85607573   193"
    ]
]